NORAD_CAT_ID,OBJECT_NAME,OBJECT_TYPE,EPOCH,MEAN_MOTION,ECCENTRICITY,INCLINATION,RA_OF_ASC_NODE,ARG_OF_PERICENTER,MEAN_ANOMALY,BSTAR,MEAN_MOTION_DOT,MEAN_MOTION_DDOT,TLE_LINE0,TLE_LINE1,TLE_LINE2,SEMIMAJOR_AXIS,PERIOD,APOGEE,PERIGEE,DECAYED
51790.0,STARLINK-3631,PAYLOAD,2023-02-28 21:21:44,15.08809451,9.33e-05,53.2143,268.7583,86.1607,273.9492,0.00028747,4.287e-05,0.0,0 STARLINK-3631,1 51790U 22017Y   23059.89009616  .00004287  00000-0  28747-3 0  9994,2 51790  53.2143 268.7583 0000933  86.1607 273.9492 15.08809451 57182,6917.974,95.439,540.484,539.193,0.0
51790.0,STARLINK-3631,PAYLOAD,2023-02-28 22:57:07,15.08812942,0.0001039,53.2144,268.4604,79.516,280.5949,2.5825e-05,1.23e-06,0.0,0 STARLINK-3631,1 51790U 22017Y   23059.95633742  .00000123  00000-0  25825-4 0  9994,2 51790  53.2144 268.4604 0001039  79.5160 280.5949 15.08812942 57193,6917.963,95.439,540.547,539.109,0.0
51790.0,STARLINK-3631,PAYLOAD,2023-03-01 19:37:09,15.08827892,8.89e-05,53.2135,264.594,91.6928,268.4166,0.00046183,7.067e-05,0.0,0 STARLINK-3631,1 51790U 22017Y   23060.81746635  .00007067  00000-0  46183-3 0  9990,2 51790  53.2135 264.5940 0000889  91.6928 268.4166 15.08827892 57323,6917.917,95.438,540.397,539.167,0.0
51790.0,STARLINK-3631,PAYLOAD,2023-03-01 21:12:32,15.0883427,0.000112,53.2139,264.2975,72.5646,287.5468,0.00069612,0.00010806,0.0,0 STARLINK-3631,1 51790U 22017Y   23060.88370655  .00010806  00000-0  69612-3 0  9999,2 51790  53.2139 264.2975 0001120  72.5646 287.5468 15.08834270 57332,6917.898,95.438,540.538,538.988,0.0
51790.0,STARLINK-3631,PAYLOAD,2023-03-02 19:27:55,15.08864357,0.000119,53.2136,260.1343,69.0719,291.0401,0.00091308,0.00014283,0.0,0 STARLINK-3631,1 51790U 22017Y   23061.81105916  .00014283  00000-0  91308-3 0  9999,2 51790  53.2136 260.1343 0001190  69.0719 291.0401 15.08864357 57473,6917.806,95.436,540.494,538.848,0.0
51790.0,STARLINK-3631,PAYLOAD,2023-03-03 12:57:09,15.08864348,0.0001296,53.2133,256.863,61.6974,298.4149,0.00079082,0.00012329,0.0,0 STARLINK-3631,1 51790U 22017Y   23062.53969497  .00012329  00000-0  79082-3 0  9995,2 51790  53.2133 256.8630 0001296  61.6974 298.4149 15.08864348 57581,6917.806,95.436,540.568,538.774,0.0
51790.0,STARLINK-3631,PAYLOAD,2023-03-03 19:18:41,15.08861499,0.0001497,53.216,255.6727,85.546,274.5703,0.00064245,9.957e-05,0.0,0 STARLINK-3631,1 51790U 22017Y   23062.80465226  .00009957  00000-0  64245-3 0  9994,2 51790  53.2160 255.6727 0001497  85.5460 274.5703 15.08861499 57623,6917.815,95.436,540.715,538.644,0.0
51790.0,STARLINK-3631,PAYLOAD,2023-03-03 22:29:28,15.08861921,0.0001126,53.2149,255.0785,78.2622,281.8497,0.00058031,8.965e-05,0.0,0 STARLINK-3631,1 51790U 22017Y   23062.93713064  .00008965  00000-0  58031-3 0  9998,2 51790  53.2149 255.0785 0001126  78.2622 281.8497 15.08861921 57649,6917.813,95.436,540.457,538.899,0.0
51790.0,STARLINK-3631,PAYLOAD,2023-03-04 12:47:56,15.08840385,0.0001115,53.2139,252.4019,82.007,278.1049,0.0004252,6.486e-05,0.0,0 STARLINK-3631,1 51790U 22017Y   23063.53329515  .00006486  00000-0  42520-3 0  9991,2 51790  53.2139 252.4019 0001115  82.0070 278.1049 15.08840385 57730,6917.879,95.438,540.516,538.973,0.0
51790.0,STARLINK-3631,PAYLOAD,2023-03-04 17:34:06,15.08838386,0.0001176,53.2142,251.5098,88.486,271.6267,0.00043358,6.619e-05,0.0,0 STARLINK-3631,1 51790U 22017Y   23063.73201607  .00006619  00000-0  43358-3 0  9992,2 51790  53.2142 251.5098 0001176  88.4860 271.6267 15.08838386 57766,6917.885,95.438,540.564,538.937,0.0
51790.0,STARLINK-3631,PAYLOAD,2023-03-05 12:38:44,15.08837569,0.0001195,53.2146,247.9419,90.0786,270.0343,0.00061194,9.464e-05,0.0,0 STARLINK-3631,1 51790U 22017Y   23064.52689910  .00009464  00000-0  61194-3 0  9996,2 51790  53.2146 247.9419 0001195  90.0786 270.0343 15.08837569 57886,6917.888,95.438,540.58,538.926,0.0
51790.0,STARLINK-3631,PAYLOAD,2023-03-05 19:00:16,15.08850357,0.0001212,53.2146,246.7534,94.7551,265.3579,0.0010204,0.00015994,0.0,0 STARLINK-3631,1 51790U 22017Y   23064.79185748  .00015994  00000-0  10204-2 0  9995,2 51790  53.2146 246.7534 0001212  94.7551 265.3579 15.08850357 57925,6917.849,95.437,540.552,538.875,0.0
51790.0,STARLINK-3631,PAYLOAD,2023-03-06 10:54:07,15.08850916,0.0001149,53.215,243.783,108.7216,251.3901,0.00035332,5.341e-05,0.0,0 STARLINK-3631,1 51790U 22017Y   23065.45425424  .00005341  00000-0  35332-3 0  9992,2 51790  53.2150 243.7830 0001149 108.7216 251.3901 15.08850916 58026,6917.847,95.437,540.507,538.917,0.0
51790.0,STARLINK-3631,PAYLOAD,2023-03-06 18:51:03,15.08844451,8.33e-05,53.215,242.292,83.898,276.2107,0.00019967,2.892e-05,0.0,0 STARLINK-3631,1 51790U 22017Y   23065.78545677  .00002892  00000-0  19967-3 0  9995,2 51790  53.2150 242.2920 0000833  83.8980 276.2107 15.08844451 58076,6917.867,95.437,540.308,539.156,0.0
51790.0,STARLINK-3631,PAYLOAD,2023-03-07 10:44:55,15.08838224,0.0001289,53.2153,239.3184,317.7373,42.3519,0.00013815,1.911e-05,0.0,0 STARLINK-3631,1 51790U 22017Y   23066.44786083  .00001911  00000-0  13815-3 0  9994,2 51790  53.2153 239.3184 0001289 317.7373  42.3519 15.08838224 58170,6917.886,95.438,540.643,538.859,0.0
51790.0,STARLINK-3631,PAYLOAD,2023-03-07 21:52:36,15.08846017,0.0001566,53.2142,237.2351,101.319,258.7978,0.00012527,1.707e-05,0.0,0 STARLINK-3631,1 51790U 22017Y   23066.91153604  .00001707  00000-0  12527-3 0  9995,2 51790  53.2142 237.2351 0001566 101.3190 258.7978 15.08846017 58242,6917.862,95.437,540.81,538.644,0.0
51790.0,STARLINK-3631,PAYLOAD,2023-03-08 12:11:05,15.08834418,7.1e-05,53.2143,234.5595,61.7793,298.3271,-2.7777e-05,-7.3e-06,0.0,0 STARLINK-3631,1 51790U 22017Y   23067.50770259 -.00000730  00000-0 -27777-4 0  9993,2 51790  53.2143 234.5595 0000710  61.7793 298.3271 15.08834418 58339,6917.897,95.438,540.254,539.271,0.0
51790.0,STARLINK-3631,PAYLOAD,2023-03-08 20:08:00,15.08848172,7.49e-05,53.2143,233.0722,69.4567,290.6505,0.00017663,2.525e-05,0.0,0 STARLINK-3631,1 51790U 22017Y   23067.83889667  .00002525  00000-0  17663-3 0  9997,2 51790  53.2143 233.0722 0000749  69.4567 290.6505 15.08848172 58383,6917.855,95.437,540.239,539.202,0.0
51790.0,STARLINK-3631,PAYLOAD,2023-03-09 04:04:56,15.08839367,0.0001166,53.2131,231.5838,91.2454,268.8671,0.000107,1.415e-05,0.0,0 STARLINK-3631,1 51790U 22017Y   23068.17010056  .00001415  00000-0  10700-3 0  9995,2 51790  53.2131 231.5838 0001166  91.2454 268.8671 15.08839367 58436,6917.882,95.438,540.554,538.941,0.0
51790.0,STARLINK-3631,PAYLOAD,2023-03-09 18:23:24,15.08850753,0.0001428,53.2166,228.9092,98.0767,262.0387,0.00015496,2.18e-05,0.0,0 STARLINK-3631,1 51790U 22017Y   23068.76625443  .00002180  00000-0  15496-3 0  9999,2 51790  53.2166 228.9092 0001428  98.0767 262.0387 15.08850753 58521,6917.848,95.437,540.7,538.725,0.0
51790.0,STARLINK-3631,PAYLOAD,2023-03-10 10:17:16,15.08837751,0.0001368,53.2156,225.9362,81.9099,278.2048,0.00013155,1.806e-05,0.0,0 STARLINK-3631,1 51790U 22017Y   23069.42866250  .00001806  00000-0  13155-3 0  9990,2 51790  53.2156 225.9362 0001368  81.9099 278.2048 15.08837751 58626,6917.887,95.438,540.699,538.806,0.0
51790.0,STARLINK-3631,PAYLOAD,2023-03-10 16:38:48,15.08841643,0.0001419,53.2159,224.7472,84.6659,275.4495,0.00015218,2.135e-05,0.0,0 STARLINK-3631,1 51790U 22017Y   23069.69362051  .00002135  00000-0  15218-3 0  9997,2 51790  53.2159 224.7472 0001419  84.6659 275.4495 15.08841643 58661,6917.875,95.437,540.722,538.759,0.0
51790.0,STARLINK-3631,PAYLOAD,2023-03-11 10:08:03,15.08831329,0.0001331,53.2176,221.4757,98.7757,261.3386,-0.00011085,-2.051e-05,0.0,0 STARLINK-3631,1 51790U 22017Y   23070.42226601 -.00002051  00000-0 -11085-3 0  9997,2 51790  53.2176 221.4757 0001331  98.7757 261.3386 15.08831329 58773,6917.907,95.438,540.693,538.851,0.0
51790.0,STARLINK-3631,PAYLOAD,2023-03-11 19:40:22,15.08843762,0.0001441,53.2153,219.6914,86.9002,273.2155,0.00021412,3.122e-05,0.0,0 STARLINK-3631,1 51790U 22017Y   23070.81970137  .00003122  00000-0  21412-3 0  9993,2 51790  53.2153 219.6914 0001441  86.9002 273.2155 15.08843762 58833,6917.869,95.437,540.731,538.737,0.0
51790.0,STARLINK-3631,PAYLOAD,2023-03-11 21:15:45,15.08846241,0.0001449,53.2158,219.3931,94.4254,265.6904,0.00025153,3.718e-05,0.0,0 STARLINK-3631,1 51790U 22017Y   23070.88594013  .00003718  00000-0  25153-3 0  9992,2 51790  53.2158 219.3931 0001449  94.4254 265.6904 15.08846241 58848,6917.861,95.437,540.729,538.724,0.0
51790.0,STARLINK-3631,PAYLOAD,2023-03-12 09:58:51,15.0882797,0.000125,53.2163,217.0167,93.9701,266.1434,-3.6662e-05,-8.71e-06,0.0,0 STARLINK-3631,1 51790U 22017Y   23071.41587145 -.00000871  00000-0 -36662-4 0  9997,2 51790  53.2163 217.0167 0001250  93.9701 266.1434 15.08827970 58922,6917.917,95.438,540.647,538.917,0.0
51790.0,STARLINK-3631,PAYLOAD,2023-03-12 19:31:09,15.08835066,0.0002065,53.2141,215.2307,106.4873,253.6346,6.6083e-05,7.64e-06,0.0,0 STARLINK-3631,1 51790U 22017Y   23071.81330948  .00000764  00000-0  66083-4 0  9997,2 51790  53.2141 215.2307 0002065 106.4873 253.6346 15.08835066 58983,6917.895,95.438,541.189,538.332,0.0
51790.0,STARLINK-3631,PAYLOAD,2023-03-13 09:49:37,15.08839704,0.0001814,53.2165,212.5541,116.4061,243.7117,0.00014725,2.056e-05,0.0,0 STARLINK-3631,1 51790U 22017Y   23072.40946729  .00002056  00000-0  14725-3 0  9994,2 51790  53.2165 212.5541 0001814 116.4061 243.7117 15.08839704 59070,6917.881,95.438,541.001,538.491,0.0
51790.0,STARLINK-3631,PAYLOAD,2023-03-13 19:21:56,15.08846737,0.0001836,53.2147,210.7686,112.6772,247.4414,0.00016066,2.27e-05,0.0,0 STARLINK-3631,1 51790U 22017Y   23072.80690289  .00002270  00000-0  16066-3 0  9993,2 51790  53.2147 210.7686 0001836 112.6772 247.4414 15.08846737 59133,6917.86,95.437,540.995,538.455,0.0
51790.0,STARLINK-3631,PAYLOAD,2023-03-14 09:40:25,15.08836649,0.0002466,53.2138,208.0913,120.9389,239.1846,0.00010033,1.309e-05,0.0,0 STARLINK-3631,1 51790U 22017Y   23073.40306804  .00001309  00000-0  10033-3 0  9997,2 51790  53.2138 208.0913 0002466 120.9389 239.1846 15.08836649 59220,6917.891,95.438,541.462,538.05,0.0
